[
  {
    "OBJECT_NAME": "CENTISPACE-1 OBJECT E",
    "OBJECT_ID": "2026-060E",
    "EPOCH": "2026-04-17T06:06:06.854400",
    "MEAN_MOTION": 14.74547402,
    "ECCENTRICITY": 0.00128051,
    "INCLINATION": 54.9768,
    "RA_OF_ASC_NODE": 284.2776,
    "ARG_OF_PERICENTER": 7.7772,
    "MEAN_ANOMALY": 352.3424,
    "EPHEMERIS_TYPE": 0,
    "CLASSIFICATION_TYPE": "U",
    "NORAD_CAT_ID": 68354,
    "ELEMENT_SET_NO": 999,
    "REV_AT_EPOCH": 378,
    "BSTAR": 1.8195098e-05,
    "MEAN_MOTION_DOT": -8.7e-07,
    "MEAN_MOTION_DDOT": 0
  },
  {
    "OBJECT_NAME": "CENTISPACE-1 OBJECT F",
    "OBJECT_ID": "2026-060F",
    "EPOCH": "2026-04-17T06:10:19.278048",
    "MEAN_MOTION": 14.73877273,
    "ECCENTRICITY": 0.00106028,
    "INCLINATION": 54.9773,
    "RA_OF_ASC_NODE": 284.2931,
    "ARG_OF_PERICENTER": 1.9345,
    "MEAN_ANOMALY": 358.1693,
    "EPHEMERIS_TYPE": 0,
    "CLASSIFICATION_TYPE": "U",
    "NORAD_CAT_ID": 68355,
    "ELEMENT_SET_NO": 999,
    "REV_AT_EPOCH": 378,
    "BSTAR": 1.9309057e-05,
    "MEAN_MOTION_DOT": -8e-07,
    "MEAN_MOTION_DDOT": 0
  },
  {
    "OBJECT_NAME": "CENTISPACE-1 OBJECT G",
    "OBJECT_ID": "2026-060G",
    "EPOCH": "2026-04-17T06:02:21.842016",
    "MEAN_MOTION": 14.74588879,
    "ECCENTRICITY": 0.00130082,
    "INCLINATION": 54.9864,
    "RA_OF_ASC_NODE": 284.285,
    "ARG_OF_PERICENTER": 4.4477,
    "MEAN_ANOMALY": 355.6636,
    "EPHEMERIS_TYPE": 0,
    "CLASSIFICATION_TYPE": "U",
    "NORAD_CAT_ID": 68356,
    "ELEMENT_SET_NO": 999,
    "REV_AT_EPOCH": 378,
    "BSTAR": 1.76788e-05,
    "MEAN_MOTION_DOT": -9e-07,
    "MEAN_MOTION_DDOT": 0
  },
  {
    "OBJECT_NAME": "CENTISPACE-1 OBJECT H",
    "OBJECT_ID": "2026-060H",
    "EPOCH": "2026-04-16T20:18:46.808640",
    "MEAN_MOTION": 14.74219081,
    "ECCENTRICITY": 0.00120113,
    "INCLINATION": 54.9852,
    "RA_OF_ASC_NODE": 285.9518,
    "ARG_OF_PERICENTER": 10.8208,
    "MEAN_ANOMALY": 349.3048,
    "EPHEMERIS_TYPE": 0,
    "CLASSIFICATION_TYPE": "U",
    "NORAD_CAT_ID": 68357,
    "ELEMENT_SET_NO": 999,
    "REV_AT_EPOCH": 372,
    "BSTAR": 1.8059968e-05,
    "MEAN_MOTION_DOT": -8.8e-07,
    "MEAN_MOTION_DDOT": 0
  },
  {
    "OBJECT_NAME": "CENTISPACE-1 OBJECT J",
    "OBJECT_ID": "2026-060J",
    "EPOCH": "2026-04-17T06:05:18.246624",
    "MEAN_MOTION": 14.74011627,
    "ECCENTRICITY": 0.0011565,
    "INCLINATION": 54.9809,
    "RA_OF_ASC_NODE": 284.2863,
    "ARG_OF_PERICENTER": 7.2169,
    "MEAN_ANOMALY": 352.8994,
    "EPHEMERIS_TYPE": 0,
    "CLASSIFICATION_TYPE": "U",
    "NORAD_CAT_ID": 68358,
    "ELEMENT_SET_NO": 999,
    "REV_AT_EPOCH": 378,
    "BSTAR": 1.9125647e-05,
    "MEAN_MOTION_DOT": -8.1e-07,
    "MEAN_MOTION_DDOT": 0
  },
  {
    "OBJECT_NAME": "CENTISPACE-1 OBJECT K",
    "OBJECT_ID": "2026-060K",
    "EPOCH": "2026-04-04T15:27:21.758112",
    "MEAN_MOTION": 14.75283234,
    "ECCENTRICITY": 0.0014769,
    "INCLINATION": 54.98,
    "RA_OF_ASC_NODE": 335.6935,
    "ARG_OF_PERICENTER": 336.0624,
    "MEAN_ANOMALY": 23.9687,
    "EPHEMERIS_TYPE": 0,
    "CLASSIFICATION_TYPE": "U",
    "NORAD_CAT_ID": 68359,
    "ELEMENT_SET_NO": 999,
    "REV_AT_EPOCH": 192,
    "BSTAR": 4.3130657e-05,
    "MEAN_MOTION_DOT": 8.4e-07,
    "MEAN_MOTION_DDOT": 0
  },
  {
    "OBJECT_NAME": "RASSVET-3 1",
    "OBJECT_ID": "2026-061A",
    "EPOCH": "2026-04-17T05:31:04.919520",
    "MEAN_MOTION": 15.86702625,
    "ECCENTRICITY": 0.00205844,
    "INCLINATION": 82.2941,
    "RA_OF_ASC_NODE": 80.9746,
    "ARG_OF_PERICENTER": 344.222,
    "MEAN_ANOMALY": 15.8406,
    "EPHEMERIS_TYPE": 0,
    "CLASSIFICATION_TYPE": "U",
    "NORAD_CAT_ID": 68360,
    "ELEMENT_SET_NO": 999,
    "REV_AT_EPOCH": 389,
    "BSTAR": 0.00024360198,
    "MEAN_MOTION_DOT": 0.0006295,
    "MEAN_MOTION_DDOT": 2.25483e-07
  },
  {
    "OBJECT_NAME": "RASSVET-3 2",
    "OBJECT_ID": "2026-061B",
    "EPOCH": "2026-04-17T06:34:57.405792",
    "MEAN_MOTION": 15.91274194,
    "ECCENTRICITY": 0.00217558,
    "INCLINATION": 82.2962,
    "RA_OF_ASC_NODE": 80.8798,
    "ARG_OF_PERICENTER": 340.9303,
    "MEAN_ANOMALY": 19.1153,
    "EPHEMERIS_TYPE": 0,
    "CLASSIFICATION_TYPE": "U",
    "NORAD_CAT_ID": 68361,
    "ELEMENT_SET_NO": 999,
    "REV_AT_EPOCH": 390,
    "BSTAR": 0.0002593668,
    "MEAN_MOTION_DOT": 0.00084389,
    "MEAN_MOTION_DDOT": 1.402962e-06
  },
  {
    "OBJECT_NAME": "RASSVET-3 3",
    "OBJECT_ID": "2026-061C",
    "EPOCH": "2026-04-17T05:04:08.232960",
    "MEAN_MOTION": 15.91253732,
    "ECCENTRICITY": 0.00215147,
    "INCLINATION": 82.2962,
    "RA_OF_ASC_NODE": 80.9505,
    "ARG_OF_PERICENTER": 341.0085,
    "MEAN_ANOMALY": 19.0383,
    "EPHEMERIS_TYPE": 0,
    "CLASSIFICATION_TYPE": "U",
    "NORAD_CAT_ID": 68362,
    "ELEMENT_SET_NO": 999,
    "REV_AT_EPOCH": 389,
    "BSTAR": 0.00025081067,
    "MEAN_MOTION_DOT": 0.00081492,
    "MEAN_MOTION_DDOT": 1.231746e-06
  },
  {
    "OBJECT_NAME": "RASSVET-3 4",
    "OBJECT_ID": "2026-061D",
    "EPOCH": "2026-04-17T06:35:44.752128",
    "MEAN_MOTION": 15.91070461,
    "ECCENTRICITY": 0.00220103,
    "INCLINATION": 82.2969,
    "RA_OF_ASC_NODE": 80.8818,
    "ARG_OF_PERICENTER": 340.8623,
    "MEAN_ANOMALY": 19.1819,
    "EPHEMERIS_TYPE": 0,
    "CLASSIFICATION_TYPE": "U",
    "NORAD_CAT_ID": 68363,
    "ELEMENT_SET_NO": 999,
    "REV_AT_EPOCH": 390,
    "BSTAR": 0.00028464634,
    "MEAN_MOTION_DOT": 0.00091664,
    "MEAN_MOTION_DDOT": 1.851886e-06
  },
  {
    "OBJECT_NAME": "RASSVET-3 5",
    "OBJECT_ID": "2026-061E",
    "EPOCH": "2026-04-17T06:34:30.670176",
    "MEAN_MOTION": 15.91217178,
    "ECCENTRICITY": 0.002161,
    "INCLINATION": 82.2962,
    "RA_OF_ASC_NODE": 80.8789,
    "ARG_OF_PERICENTER": 340.7038,
    "MEAN_ANOMALY": 19.3414,
    "EPHEMERIS_TYPE": 0,
    "CLASSIFICATION_TYPE": "U",
    "NORAD_CAT_ID": 68364,
    "ELEMENT_SET_NO": 999,
    "REV_AT_EPOCH": 390,
    "BSTAR": 0.00025886919,
    "MEAN_MOTION_DOT": 0.00083957,
    "MEAN_MOTION_DDOT": 1.375664e-06
  },
  {
    "OBJECT_NAME": "RASSVET-3 6",
    "OBJECT_ID": "2026-061F",
    "EPOCH": "2026-04-17T05:01:25.771584",
    "MEAN_MOTION": 15.91364191,
    "ECCENTRICITY": 0.0021373,
    "INCLINATION": 82.2964,
    "RA_OF_ASC_NODE": 80.9478,
    "ARG_OF_PERICENTER": 341.2456,
    "MEAN_ANOMALY": 18.8026,
    "EPHEMERIS_TYPE": 0,
    "CLASSIFICATION_TYPE": "U",
    "NORAD_CAT_ID": 68365,
    "ELEMENT_SET_NO": 999,
    "REV_AT_EPOCH": 389,
    "BSTAR": 0.00025938435,
    "MEAN_MOTION_DOT": 0.00084721,
    "MEAN_MOTION_DDOT": 1.425131e-06
  },
  {
    "OBJECT_NAME": "RASSVET-3 7",
    "OBJECT_ID": "2026-061G",
    "EPOCH": "2026-04-17T06:33:46.465344",
    "MEAN_MOTION": 15.91245918,
    "ECCENTRICITY": 0.00213889,
    "INCLINATION": 82.296,
    "RA_OF_ASC_NODE": 80.8783,
    "ARG_OF_PERICENTER": 340.7492,
    "MEAN_ANOMALY": 19.297,
    "EPHEMERIS_TYPE": 0,
    "CLASSIFICATION_TYPE": "U",
    "NORAD_CAT_ID": 68366,
    "ELEMENT_SET_NO": 999,
    "REV_AT_EPOCH": 390,
    "BSTAR": 0.00025253268,
    "MEAN_MOTION_DOT": 0.00081996,
    "MEAN_MOTION_DDOT": 1.260835e-06
  },
  {
    "OBJECT_NAME": "RASSVET-3 8",
    "OBJECT_ID": "2026-061H",
    "EPOCH": "2026-04-17T05:03:38.748096",
    "MEAN_MOTION": 15.9121935,
    "ECCENTRICITY": 0.00215112,
    "INCLINATION": 82.2964,
    "RA_OF_ASC_NODE": 80.9501,
    "ARG_OF_PERICENTER": 340.8487,
    "MEAN_ANOMALY": 19.1974,
    "EPHEMERIS_TYPE": 0,
    "CLASSIFICATION_TYPE": "U",
    "NORAD_CAT_ID": 68367,
    "ELEMENT_SET_NO": 999,
    "REV_AT_EPOCH": 389,
    "BSTAR": 0.0002804167,
    "MEAN_MOTION_DOT": 0.00090908,
    "MEAN_MOTION_DDOT": 1.807541e-06
  },
  {
    "OBJECT_NAME": "RASSVET-3 9",
    "OBJECT_ID": "2026-061J",
    "EPOCH": "2026-04-17T04:54:40.539168",
    "MEAN_MOTION": 15.91432873,
    "ECCENTRICITY": 0.00202853,
    "INCLINATION": 82.2958,
    "RA_OF_ASC_NODE": 80.9376,
    "ARG_OF_PERICENTER": 344.2904,
    "MEAN_ANOMALY": 15.7736,
    "EPHEMERIS_TYPE": 0,
    "CLASSIFICATION_TYPE": "U",
    "NORAD_CAT_ID": 68368,
    "ELEMENT_SET_NO": 999,
    "REV_AT_EPOCH": 389,
    "BSTAR": 0.00025249554,
    "MEAN_MOTION_DOT": 0.000826,
    "MEAN_MOTION_DDOT": 1.299562e-06
  },
  {
    "OBJECT_NAME": "RASSVET-3 10",
    "OBJECT_ID": "2026-061K",
    "EPOCH": "2026-04-17T05:03:16.375680",
    "MEAN_MOTION": 15.91148107,
    "ECCENTRICITY": 0.00214708,
    "INCLINATION": 82.2964,
    "RA_OF_ASC_NODE": 80.95,
    "ARG_OF_PERICENTER": 340.9697,
    "MEAN_ANOMALY": 19.077,
    "EPHEMERIS_TYPE": 0,
    "CLASSIFICATION_TYPE": "U",
    "NORAD_CAT_ID": 68369,
    "ELEMENT_SET_NO": 999,
    "REV_AT_EPOCH": 389,
    "BSTAR": 0.00026561392,
    "MEAN_MOTION_DOT": 0.00085807,
    "MEAN_MOTION_DDOT": 1.485087e-06
  },
  {
    "OBJECT_NAME": "RASSVET-3 11",
    "OBJECT_ID": "2026-061L",
    "EPOCH": "2026-04-17T06:33:00.504000",
    "MEAN_MOTION": 15.91175397,
    "ECCENTRICITY": 0.00212602,
    "INCLINATION": 82.2965,
    "RA_OF_ASC_NODE": 80.8775,
    "ARG_OF_PERICENTER": 340.5587,
    "MEAN_ANOMALY": 19.4872,
    "EPHEMERIS_TYPE": 0,
    "CLASSIFICATION_TYPE": "U",
    "NORAD_CAT_ID": 68370,
    "ELEMENT_SET_NO": 999,
    "REV_AT_EPOCH": 390,
    "BSTAR": 0.00025028469,
    "MEAN_MOTION_DOT": 0.00080955,
    "MEAN_MOTION_DDOT": 1.198896e-06
  },
  {
    "OBJECT_NAME": "RASSVET-3 12",
    "OBJECT_ID": "2026-061M",
    "EPOCH": "2026-04-17T06:29:53.321856",
    "MEAN_MOTION": 15.91597397,
    "ECCENTRICITY": 0.00208032,
    "INCLINATION": 82.2964,
    "RA_OF_ASC_NODE": 80.8743,
    "ARG_OF_PERICENTER": 340.3475,
    "MEAN_ANOMALY": 19.6993,
    "EPHEMERIS_TYPE": 0,
    "CLASSIFICATION_TYPE": "U",
    "NORAD_CAT_ID": 68371,
    "ELEMENT_SET_NO": 999,
    "REV_AT_EPOCH": 390,
    "BSTAR": 0.0002780295,
    "MEAN_MOTION_DOT": 0.0009178,
    "MEAN_MOTION_DDOT": 1.876373e-06
  }
]